HODOYOSHI-4             
1 40011U 14033B   26199.83793355  .00000143  00000+0  21126-4 0  9990
2 40011  97.5460  23.1348 0022927 197.2251 162.8191 14.88191927653517
DEIMOS-2                
1 40013U 14033D   26199.86775455  .00001033  00000+0  10253-3 0  9993
2 40013  97.5780  73.2375 0001350 107.6880 252.4488 14.93801912642454
HODOYOSHI-3             
1 40015U 14033F   26199.71067213  .00000467  00000+0  59870-4 0  9994
2 40015  97.6450   1.4888 0031379 249.7907 109.9933 14.85441145652300
SPOT 7                  
1 40053U 14034A   26199.82322326  .00000171  00000+0  44225-4 0  9998
2 40053  98.0608 261.4974 0001628  94.7059 265.4328 14.60982644641756
SKYSAT-B                
1 40072U 14037D   26199.79615169  .00000567  00000+0  68368-4 0  9991
2 40072  98.3856 160.5681 0005858 161.7870 198.3555 14.88096601650669
WORLDVIEW-3 (WV-3)      
1 40115U 14048A   26199.83559370  .00000345  00000+0  46686-4 0  9990
2 40115  97.8554 274.2301 0001573 150.4903 209.6401 14.85067225646602
GAOFEN-2                
1 40118U 14049A   26199.86523280  .00000133  00000+0  24041-4 0  9994
2 40118  98.0090 264.0398 0008465 124.5253 235.6759 14.80928836643929
YAOGAN-21               
1 40143U 14053A   26199.88752259  .00002966  00000+0  11523-3 0  9995
2 40143  97.1455 238.7683 0007318 355.3969   4.7202 15.26787173659799
YAOGAN-22               
1 40275U 14063A   26199.36661226 -.00000023  00000+0  62613-4 0  9998
2 40275 100.7766 351.1630 0006896 118.5201 241.6605 13.15531673563916
ASNARO                  
1 40298U 14070A   26199.83219267  .00002538  00000+0  12302-3 0  9998
2 40298  97.3432 275.0954 0004689  78.5533 281.6229 15.19405370648815
YAOGAN-24               
1 40310U 14072A   26199.87336027  .00000357  00000+0  59320-4 0  9992
2 40310  98.1534 337.4818 0014869 158.0401 202.1449 14.76120758628392
CBERS 4                 
1 40336U 14079A   26199.89090905 -.00000026  00000+0  57444-5 0  9991
2 40336  98.3510 255.7250 0000643  59.6839 300.4411 14.35516449608507
YAOGAN-26               
1 40362U 14088A   26199.87320744  .00010055  00000+0  19052-3 0  9998
2 40362  97.0656 199.3680 0001284 313.6313  46.4832 15.48535535642600
SMAP                    
1 40376U 15003A   26199.80623068  .00000159  00000+0  39875-4 0  9999
2 40376  98.1285 206.4542 0001623  93.5805 266.5583 14.63390735612241
KOMPSAT-3A              
1 40536U 15014A   26199.90656925  .00022102  00000+0  30212-3 0  9995
2 40536  97.6901 193.6280 0055778  62.5494 298.1416 15.55579376626742
SENTINEL-2A             
1 40697U 15028A   26199.82309602  .00000107  00000+0  57613-4 0  9992
2 40697  98.5673 274.2241 0001305  95.7199 264.4132 14.30815215578256
GAOFEN-8                
1 40701U 15030A   26199.85705556  .00015933  00000+0  31635-3 0  9990
2 40701  97.6896  35.1531 0009899  84.2764 275.9613 15.47036693616340
CARBONITE 1 (CBNT-1)    
1 40718U 15032D   26199.81355086  .00000719  00000+0  93118-4 0  9996
2 40718  97.6524  16.5593 0014164 184.7200 175.3884 14.83674251594030
YAOGAN-27               
1 40878U 15040A   26199.88126749 -.00000395  00000+0 -92726-3 0  9996
2 40878 100.1174 184.8913 0008667 137.2341 222.9449 13.16069990521830
GAOFEN-9 01             
1 40894U 15047A   26199.84391182  .00000396  00000+0  54717-4 0  9990
2 40894  97.6263 234.0988 0028203  38.9966 321.3275 14.82938750584883
YAOGAN-28               
1 41026U 15064A   26199.83001385  .00003438  00000+0  12914-3 0  9991
2 41026  97.3117 337.4619 0012002  81.9088 278.3512 15.27786323595512
YAOGAN-29               
1 41038U 15069A   26199.88754435 -.00000296  00000+0 -29723-4 0  9993
2 41038  98.0015 228.5686 0000409 359.9129   0.2084 14.83105913575320
KENT RIDGE 1            
1 41167U 15077B   26199.72570507  .00002236  00000+0  60393-4 0  9996
2 41167  14.9807  31.4027 0008263 324.6648  35.3126 15.23294374585917
GAOFEN-4                
1 41194U 15083A   26199.72526807 -.00000341  00000+0  00000+0 0  9997
2 41194   0.4372  83.8070 0004243 125.0645  94.4453  1.00270986 38844
JASON-3                 
1 41240U 16002A   26199.84741425 -.00000034  00000+0  11079-3 0  9990
2 41240  66.0416  59.2735 0008149 270.6018  89.4067 12.87628845491327
SENTINEL-3A             
1 41335U 16011A   26199.84512161  .00000040  00000+0  34479-4 0  9994
2 41335  98.6234 266.7716 0001323  89.1412 270.9920 14.26740408542577
ZIYUAN 3-02 (ZY 3-02)   
1 41556U 16033A   26199.89269007  .00002660  00000+0  12118-3 0  9991
2 41556  97.3822 275.0577 0014464 172.1334 188.0132 15.21454758562803
CARTOSAT-2C             
1 41599U 16040A   26199.80709855  .00001508  00000+0  74653-4 0  9990
2 41599  97.4462 259.3470 0009318  34.1348 326.0484 15.19278517558513
SKYSAT-C1               
1 41601U 16040C   26199.80102519  .00004865  00000+0  13746-3 0  9992
2 41601  96.9549 229.8149 0000422 211.1018 149.0202 15.36783549562724
LAPAN-A3                
1 41603U 16040E   26199.84478531  .00001573  00000+0  51204-4 0  9993
2 41603  97.1507 194.9570 0008275 259.9954 100.0355 15.33290417559665
GAOFEN-3                
1 41727U 16049A   26199.85907050 -.00000117  00000+0 -22376-4 0  9996
2 41727  98.4016 207.1676 0001761  83.8125 276.3266 14.42218498523210
